{
  "links" : {
    "next" : "https://api.nasa.gov/neo/rest/v1/feed?start_date=1998-08-09&end_date=1998-08-09&detailed=true&api_key=t0TVs3DtDT2H8Oy2Zy8m2eVrNsAVKAexjcZXUckd",
    "prev" : "https://api.nasa.gov/neo/rest/v1/feed?start_date=1998-08-07&end_date=1998-08-07&detailed=true&api_key=t0TVs3DtDT2H8Oy2Zy8m2eVrNsAVKAexjcZXUckd",
    "self" : "https://api.nasa.gov/neo/rest/v1/feed?start_date=1998-08-08&end_date=1998-08-08&detailed=true&api_key=t0TVs3DtDT2H8Oy2Zy8m2eVrNsAVKAexjcZXUckd"
  },
  "element_count" : 7,
  "near_earth_objects" : {
    "1998-08-08" : [ {
      "links" : {
        "self" : "https://api.nasa.gov/neo/rest/v1/neo/3752441?api_key=t0TVs3DtDT2H8Oy2Zy8m2eVrNsAVKAexjcZXUckd"
      },
      "neo_reference_id" : "3752441",
      "name" : "(2016 HL3)",
      "nasa_jpl_url" : "http://ssd.jpl.nasa.gov/sbdb.cgi?sstr=3752441",
      "absolute_magnitude_h" : 24.7,
      "estimated_diameter" : {
        "kilometers" : {
          "estimated_diameter_min" : 0.0305179233,
          "estimated_diameter_max" : 0.0682401509
        },
        "meters" : {
          "estimated_diameter_min" : 30.5179232594,
          "estimated_diameter_max" : 68.2401509401
        },
        "miles" : {
          "estimated_diameter_min" : 0.0189629525,
          "estimated_diameter_max" : 0.0424024508
        },
        "feet" : {
          "estimated_diameter_min" : 100.1244233463,
          "estimated_diameter_max" : 223.8850168104
        }
      },
      "is_potentially_hazardous_asteroid" : false,
      "close_approach_data" : [ {
        "close_approach_date" : "1998-08-08",
        "epoch_date_close_approach" : 902559600000,
        "relative_velocity" : {
          "kilometers_per_second" : "8.7252764872",
          "kilometers_per_hour" : "31410.995353881",
          "miles_per_hour" : "19517.5709741935"
        },
        "miss_distance" : {
          "astronomical" : "0.1504113041",
          "lunar" : "58.5099983215",
          "kilometers" : "22501212",
          "miles" : "13981605"
        },
        "orbiting_body" : "Earth"
      } ],
      "orbital_data" : {
        "orbit_id" : "12",
        "orbit_determination_date" : "2017-06-19 06:17:48",
        "orbit_uncertainty" : "2",
        "minimum_orbit_intersection" : ".0382611",
        "jupiter_tisserand_invariant" : "6.222",
        "epoch_osculation" : "2458000.5",
        "eccentricity" : ".1644539434706337",
        "semi_major_axis" : ".968587523459933",
        "inclination" : "3.452676186344187",
        "ascending_node_longitude" : "100.0634816782151",
        "orbital_period" : "348.1823343669631",
        "perihelion_distance" : ".8092994856304921",
        "perihelion_argument" : "335.8989664862722",
        "aphelion_distance" : "1.127875561289374",
        "perihelion_time" : "2458081.456350852196",
        "mean_anomaly" : "276.2959075457455",
        "mean_motion" : "1.033941025912538",
        "equinox" : "J2000"
      }
    } ]
  }
}